{
  "norad_id": 58632,
  "name": "STARLINK-31081",
  "history": [
    {
      "epoch": "2026-03-28T16:03:41.929056Z",
      "apogee_km": 484.0876786062736,
      "perigee_km": 482.09243377833263,
      "latitude_deg": 4.7358546859068265e-05,
      "longitude_deg": -103.63021814114103,
      "height_km": 482.8103866942596,
      "semi_major_axis_km": 6861.227056192302,
      "eccentricity": 0.0001454,
      "inclination_deg": 43.0047,
      "raan_deg": 323.3808,
      "arg_perigee_deg": 273.2721,
      "mean_anomaly_deg": 86.7965,
      "mean_motion_rev_day": 15.27566321
    },
    {
      "epoch": "2026-03-28T23:54:27.722016Z",
      "apogee_km": 483.94042965822337,
      "perigee_km": 482.07008227924507,
      "latitude_deg": -3.9541790065620036e-05,
      "longitude_deg": 136.50905909921659,
      "height_km": 482.8157896806673,
      "semi_major_axis_km": 6861.1422559687335,
      "eccentricity": 0.0001363,
      "inclination_deg": 43.0036,
      "raan_deg": 321.5332,
      "arg_perigee_deg": 267.9493,
      "mean_anomaly_deg": 92.1202,
      "mean_motion_rev_day": 15.27594641
    },
    {
      "epoch": "2026-03-29T23:26:49.343136Z",
      "apogee_km": 484.09862317114494,
      "perigee_km": 482.0537071993931,
      "latitude_deg": 3.3641265783682916e-05,
      "longitude_deg": 136.91372332180563,
      "height_km": 482.7630814177564,
      "semi_major_axis_km": 6861.213165185269,
      "eccentricity": 0.00014902,
      "inclination_deg": 43.0022,
      "raan_deg": 315.9946,
      "arg_perigee_deg": 275.0561,
      "mean_anomaly_deg": 85.0121,
      "mean_motion_rev_day": 15.2757096
    },
    {
      "epoch": "2026-03-30T15:08:23.397504Z",
      "apogee_km": 484.03142841617864,
      "perigee_km": 482.1134459301102,
      "latitude_deg": -5.956620872311305e-05,
      "longitude_deg": -102.81264863189693,
      "height_km": 482.68310320935217,
      "semi_major_axis_km": 6861.209437173144,
      "eccentricity": 0.00013977,
      "inclination_deg": 43.0028,
      "raan_deg": 312.3047,
      "arg_perigee_deg": 279.9898,
      "mean_anomaly_deg": 80.0795,
      "mean_motion_rev_day": 15.27572205
    },
    {
      "epoch": "2026-03-30T21:25:00.971040Z",
      "apogee_km": 484.0792860576785,
      "perigee_km": 482.0590725102511,
      "latitude_deg": -2.40090760447173e-05,
      "longitude_deg": 161.2957416952043,
      "height_km": 482.6748911443238,
      "semi_major_axis_km": 6861.206179283965,
      "eccentricity": 0.00014722,
      "inclination_deg": 43.0029,
      "raan_deg": 310.8274,
      "arg_perigee_deg": 279.7685,
      "mean_anomaly_deg": 80.3,
      "mean_motion_rev_day": 15.27573293
    },
    {
      "epoch": "2026-03-31T14:40:44.431104Z",
      "apogee_km": 484.09229837472503,
      "perigee_km": 482.03531037357334,
      "latitude_deg": -3.68187390932915e-05,
      "longitude_deg": -102.40658269817762,
      "height_km": 482.6012608881863,
      "semi_major_axis_km": 6861.200804374149,
      "eccentricity": 0.0001499,
      "inclination_deg": 43.0023,
      "raan_deg": 306.7651,
      "arg_perigee_deg": 283.4708,
      "mean_anomaly_deg": 76.5976,
      "mean_motion_rev_day": 15.27575088
    },
    {
      "epoch": "2026-04-01T20:29:43.000224Z",
      "apogee_km": 484.02174860787,
      "perigee_km": 482.1157056568727,
      "latitude_deg": 6.976313827388862e-06,
      "longitude_deg": 162.1100169362463,
      "height_km": 482.64756409241664,
      "semi_major_axis_km": 6861.205727132371,
      "eccentricity": 0.0001389,
      "inclination_deg": 43.0022,
      "raan_deg": 299.7502,
      "arg_perigee_deg": 281.9975,
      "mean_anomaly_deg": 78.0721,
      "mean_motion_rev_day": 15.27573444
    }
  ]
}